[{"OBJECT_NAME":"GEESAT-1 05","OBJECT_ID":"2022-058E","EPOCH":"2026-03-09T23:16:32.924064","MEAN_MOTION":14.9973595,"ECCENTRICITY":0.00033659,"INCLINATION":49.9868,"RA_OF_ASC_NODE":292.6549,"ARG_OF_PERICENTER":123.1289,"MEAN_ANOMALY":236.998,"EPHEMERIS_TYPE":0,"CLASSIFICATION_TYPE":"U","NORAD_CAT_ID":52789,"ELEMENT_SET_NO":999,"REV_AT_EPOCH":20531,"BSTAR":0.00050752064,"MEAN_MOTION_DOT":6.088e-5,"MEAN_MOTION_DDOT":0},{"OBJECT_NAME":"STARLINK-36158","OBJECT_ID":"2025-298F","EPOCH":"2026-03-09T21:39:48.216096","MEAN_MOTION":14.98330434,"ECCENTRICITY":0.00024965,"INCLINATION":70.0011,"RA_OF_ASC_NODE":13.7454,"ARG_OF_PERICENTER":273.3529,"MEAN_ANOMALY":86.7344,"EPHEMERIS_TYPE":0,"CLASSIFICATION_TYPE":"U","NORAD_CAT_ID":67080,"ELEMENT_SET_NO":999,"REV_AT_EPOCH":1325,"BSTAR":0.00042338517,"MEAN_MOTION_DOT":4.962e-5,"MEAN_MOTION_DDOT":0}]
